OBJECT_NAME,OBJECT_ID,EPOCH,MEAN_MOTION,ECCENTRICITY,INCLINATION,RA_OF_ASC_NODE,ARG_OF_PERICENTER,MEAN_ANOMALY,EPHEMERIS_TYPE,CLASSIFICATION_TYPE,NORAD_CAT_ID,ELEMENT_SET_NO,REV_AT_EPOCH,BSTAR,MEAN_MOTION_DOT,MEAN_MOTION_DDOT
GAOFEN-11 01,2018-063A,2026-07-14T23:03:37.935936,15.56059123,.00030697,97.1282,262.7734,200.1028,160.0107,0,U,43585,999,44466,.90463091E-4,.6205E-4,0
ICESAT-2,2018-070A,2026-07-14T20:28:01.344576,15.28173650,.0005728,92.0097,298.4550,59.8427,300.3389,0,U,43613,999,43668,.18340681E-3,.5037E-4,0
HYSIS,2018-096A,2026-07-14T22:57:10.636704,14.78671075,.00018468,97.9836,262.4846,84.0517,276.0905,0,U,43719,999,41152,.12876245E-3,.892E-5,0
KAZSTSAT,2018-099AB,2026-07-14T15:35:31.870752,14.99954847,.00073834,97.4319,226.3401,343.2515,16.8465,0,U,43783,999,41542,.45706532E-4,.512E-5,0
SAUDISAT 5A,2018-102A,2026-07-14T23:50:34.365984,15.28319830,.00104528,97.3053,257.0408,44.3461,315.8614,0,U,43831,999,41992,.11475819E-3,.3096E-4,0
SAUDISAT 5B,2018-102C,2026-07-14T22:36:54.046944,15.28562552,.00112403,97.3163,260.1107,45.9282,314.2881,0,U,43833,999,42003,.10636617E-3,.2886E-4,0
GAOFEN-10R,2019-066A,2026-07-14T22:50:04.714944,14.83056919,.00068875,98.0508,149.7346,53.7594,306.4255,0,U,44622,999,36649,.71586439E-4,.528E-5,0
CARTOSAT-3,2019-081A,2026-07-14T22:50:19.974048,15.19183501,.00130846,97.4298,257.3696,59.9242,300.3288,0,U,44804,999,36768,.86599344E-4,.1757E-4,0
GAOFEN-12 01,2019-082A,2026-07-14T23:50:22.341696,14.80479452,.00009785,97.8109,201.6398,54.1045,306.0258,0,U,44819,999,35820,.27670378E-4,.161E-5,0
CSG-1,2019-092A,2026-07-14T22:23:50.136288,14.82156618,.00015006,97.8896,19.1349,90.0467,270.0918,0,U,44873,999,35558,.25400211E-4,.15E-5,0
NEMO-HD,2020-061F,2026-07-14T22:00:52.814016,15.45135013,.00009791,97.1907,257.5978,95.2300,264.9061,0,U,46277,999,32626,.14152802E-3,.6615E-4,0
SENTINEL-6A,2020-086A,2026-07-14T21:07:56.584128,12.80930157,.00077886,66.0412,77.5341,269.7823,90.2299,0,U,46984,999,26387,.83335395E-4,-.42E-6,0
CAS500-1,2021-022A,2026-07-14T23:20:38.164416,15.20129889,.00051814,97.3868,90.6591,171.6256,188.5067,0,U,47932,999,29498,.15879135E-3,.3366E-4,0
GAOFEN-12 02,2021-026A,2026-07-14T22:33:16.450272,14.80315963,.00058245,97.9934,194.0086,132.9214,227.2487,0,U,48079,999,28586,.27040967E-4,.153E-5,0
PLEIADES NEO 3,2021-034A,2026-07-14T22:35:41.730144,14.81665400,.00013058,97.8946,270.3085,92.8825,267.2538,0,U,48268,999,28176,-.82383833E-4,-.7E-5,0
PLEIADES NEO 4,2021-073E,2026-07-14T21:47:03.963264,14.81673026,.00013525,97.8945,270.2713,92.9900,267.1468,0,U,49070,999,26547,.11820978E-3,.878E-5,0
LANDSAT 9,2021-088A,2026-07-14T19:14:38.325408,14.57095360,.00011434,98.2270,265.6433,88.0922,272.0407,0,U,49260,999,25502,.46671168E-4,.165E-5,0
CSG-2,2022-008A,2026-07-14T23:12:23.999616,14.82150749,.00015426,97.8885,19.1624,84.5128,275.6261,0,U,51444,999,24070,.28489375E-4,.175E-5,0
GAOFEN-12 03,2022-069A,2026-07-14T23:23:11.852736,14.80074653,.00024306,97.8250,83.1406,72.9516,287.1962,0,U,52912,999,21872,.5186522E-4,.342E-5,0
SWOT,2022-173A,2026-07-14T22:14:39.960960,14.00172399,.00002624,77.6109,357.8602,77.9722,282.1459,0,U,54754,999,18303,.28219526E-4,.39E-6,0
GAOFEN-12 04,2023-123A,2026-07-14T22:14:07.744128,14.79774981,.00035334,97.9102,113.5299,51.0924,309.0602,0,U,57654,999,15673,.66592191E-4,.449E-5,0
PARS 1,2024-039Q,2026-07-14T22:50:45.820608,15.46286466,.00098034,97.4836,177.7603,27.7024,332.4746,0,U,59065,999,13293,.13878583E-3,.6752E-4,0
RESURS-P 4,2024-061A,2026-07-14T22:53:08.744352,15.32279228,.00032218,97.2758,143.3729,89.8882,270.2729,0,U,59371,999,12801,.55947135E-4,.1668E-4,0
LEGION 1,2024-081A,2026-07-14T22:26:42.327168,15.16842607,.00077018,97.5012,273.4979,270.8634,89.1717,0,U,59625,999,12174,.10148812E-3,.193E-4,0
LEGION 2,2024-081B,2026-07-14T21:35:27.641472,15.16821712,.00101866,97.5014,273.5595,234.4417,125.5867,0,U,59626,999,12174,.11095921E-3,.2116E-4,0
ALOS-4 (DAICHI-4),2024-123A,2026-07-14T22:56:06.434592,14.79469058,.00015888,97.9221,292.7328,98.0752,262.0640,0,U,60182,999,10998,.50220665E-4,.324E-5,0
LEGION 3,2024-146A,2026-07-14T14:40:37.185600,15.15653480,.00082703,45.0019,243.5171,330.9950,29.0469,0,U,60452,999,10618,.97435323E-4,.1621E-4,0
LEGION 4,2024-146B,2026-07-14T19:24:59.673600,15.15679876,.00089457,45.0030,334.3256,111.3803,248.8031,0,U,60453,999,10506,.11348257E-3,.1933E-4,0
SENTINEL-2C,2024-157A,2026-07-14T19:04:42.425472,14.30815595,.00009569,98.5685,270.1851,103.6589,256.4701,0,U,60989,999,9693,.33212914E-4,.43E-6,0
IONOSFERA-M 1,2024-199A,2026-07-14T21:39:06.547104,14.22759122,.00021656,98.7135,68.7771,73.3224,286.8191,0,U,61735,999,13164,.34024373E-4,.32E-6,0
