GAOFEN-11 01            
1 43585U 18063A   26195.96085574  .00006205  00000+0  90463-4 0  9998
2 43585  97.1282 262.7734 0003069 200.1028 160.0107 15.56059123444664
ICESAT-2                
1 43613U 18070A   26195.85279334  .00005037  00000+0  18341-3 0  9991
2 43613  92.0097 298.4550 0005728  59.8427 300.3389 15.28173650436687
HYSIS                   
1 43719U 18096A   26195.95637311  .00000892  00000+0  12876-3 0  9991
2 43719  97.9836 262.4846 0001846  84.0517 276.0905 14.78671075411522
KAZSTSAT                
1 43783U 18099AB  26195.64967443  .00000512  00000+0  45707-4 0  9992
2 43783  97.4319 226.3401 0007383 343.2515  16.8465 14.99954847415428
SAUDISAT 5A             
1 43831U 18102A   26195.99345331  .00003096  00000+0  11476-3 0  9990
2 43831  97.3053 257.0408 0010452  44.3461 315.8614 15.28319830419921
SAUDISAT 5B             
1 43833U 18102C   26195.94229221  .00002886  00000+0  10637-3 0  9990
2 43833  97.3163 260.1107 0011240  45.9282 314.2881 15.28562552420034
GAOFEN-10R              
1 44622U 19066A   26195.95144346  .00000528  00000+0  71586-4 0  9994
2 44622  98.0508 149.7346 0006887  53.7594 306.4255 14.83056919366495
CARTOSAT-3              
1 44804U 19081A   26195.95162007  .00001757  00000+0  86599-4 0  9992
2 44804  97.4298 257.3696 0013084  59.9242 300.3288 15.19183501367684
GAOFEN-12 01            
1 44819U 19082A   26195.99331414  .00000161  00000+0  27670-4 0  9996
2 44819  97.8109 201.6398 0000978  54.1045 306.0258 14.80479452358200
CSG-1                   
1 44873U 19092A   26195.93321917  .00000150  00000+0  25400-4 0  9995
2 44873  97.8896  19.1349 0001500  90.0467 270.0918 14.82156618355589
NEMO-HD                 
1 46277U 20061F   26195.91727794  .00006615  00000+0  14153-3 0  9998
2 46277  97.1907 257.5978 0000979  95.2300 264.9061 15.45135013326263
SENTINEL-6A             
1 46984U 20086A   26195.88051602 -.00000042  00000+0  83335-4 0  9992
2 46984  66.0412  77.5341 0007788 269.7823  90.2299 12.80930157263879
CAS500-1                
1 47932U 21022A   26195.97266394  .00003366  00000+0  15879-3 0  9991
2 47932  97.3868  90.6591 0005181 171.6256 188.5067 15.20129889294983
GAOFEN-12 02            
1 48079U 21026A   26195.93977373  .00000153  00000+0  27041-4 0  9996
2 48079  97.9934 194.0086 0005824 132.9214 227.2487 14.80315963285861
PLEIADES NEO 3          
1 48268U 21034A   26195.94145521 -.00000700  00000+0 -82384-4 0  9999
2 48268  97.8946 270.3085 0001305  92.8825 267.2538 14.81665400281763
PLEIADES NEO 4          
1 49070U 21073E   26195.90768476  .00000878  00000+0  11821-3 0  9991
2 49070  97.8945 270.2713 0001352  92.9900 267.1468 14.81673026265472
LANDSAT 9               
1 49260U 21088A   26195.80183247  .00000165  00000+0  46671-4 0  9995
2 49260  98.2270 265.6433 0001143  88.0922 272.0407 14.57095360255024
CSG-2                   
1 51444U 22008A   26195.96694444  .00000175  00000+0  28489-4 0  9996
2 51444  97.8885  19.1624 0001542  84.5128 275.6261 14.82150749240701
GAOFEN-12 03            
1 52912U 22069A   26195.97444274  .00000342  00000+0  51865-4 0  9999
2 52912  97.8250  83.1406 0002430  72.9516 287.1962 14.80074653218726
SWOT                    
1 54754U 22173A   26195.92685140  .00000039  00000+0  28220-4 0  9997
2 54754  77.6109 357.8602 0000262  77.9722 282.1459 14.00172399183034
GAOFEN-12 04            
1 57654U 23123A   26195.92647852  .00000449  00000+0  66592-4 0  9992
2 57654  97.9102 113.5299 0003533  51.0924 309.0602 14.79774981156731
PARS 1                  
1 59065U 24039Q   26195.95191922  .00006752  00000+0  13879-3 0  9994
2 59065  97.4836 177.7603 0009803  27.7024 332.4746 15.46286466132932
RESURS-P 4              
1 59371U 24061A   26195.95357343  .00001668  00000+0  55947-4 0  9994
2 59371  97.2758 143.3729 0003221  89.8882 270.2729 15.32279228128017
LEGION 1                
1 59625U 24081A   26195.93521212  .00001930  00000+0  10149-3 0  9990
2 59625  97.5012 273.4979 0007701 270.8634  89.1717 15.16842607121747
LEGION 2                
1 59626U 24081B   26195.89962548  .00002116  00000+0  11096-3 0  9996
2 59626  97.5014 273.5595 0010186 234.4417 125.5867 15.16821712121746
ALOS-4 (DAICHI-4)       
1 60182U 24123A   26195.95563003  .00000324  00000+0  50221-4 0  9995
2 60182  97.9221 292.7328 0001588  98.0752 262.0640 14.79469058109985
LEGION 3                
1 60452U 24146A   26195.61154150  .00001621  00000+0  97435-4 0  9991
2 60452  45.0019 243.5171 0008270 330.9950  29.0469 15.15653480106181
LEGION 4                
1 60453U 24146B   26195.80902400  .00001933  00000+0  11348-3 0  9996
2 60453  45.0030 334.3256 0008945 111.3803 248.8031 15.15679876105064
SENTINEL-2C             
1 60989U 24157A   26195.79493548  .00000043  00000+0  33213-4 0  9995
2 60989  98.5685 270.1851 0000956 103.6589 256.4701 14.30815595 96934
IONOSFERA-M 1           
1 61735U 24199A   26195.90215911  .00000032  00000+0  34024-4 0  9999
2 61735  98.7135  68.7771 0002165  73.3224 286.8191 14.22759122131643
